[{"OBJECT_NAME":"TSAT-1A","OBJECT_ID":"2024-066A","EPOCH":"2026-03-09T22:56:57.116832","MEAN_MOTION":15.33219384,"ECCENTRICITY":0.00111833,"INCLINATION":45.6179,"RA_OF_ASC_NODE":302.0275,"ARG_OF_PERICENTER":264.5913,"MEAN_ANOMALY":95.3706,"EPHEMERIS_TYPE":0,"CLASSIFICATION_TYPE":"U","NORAD_CAT_ID":59442,"ELEMENT_SET_NO":999,"REV_AT_EPOCH":10653,"BSTAR":0.00047082724,"MEAN_MOTION_DOT":0.00015138,"MEAN_MOTION_DDOT":0},{"OBJECT_NAME":"STARLINK-34777","OBJECT_ID":"2025-189S","EPOCH":"2026-03-09T16:16:19.859232","MEAN_MOTION":15.3019953,"ECCENTRICITY":9.224e-5,"INCLINATION":53.1575,"RA_OF_ASC_NODE":206.8908,"ARG_OF_PERICENTER":83.7399,"MEAN_ANOMALY":276.3707,"EPHEMERIS_TYPE":0,"CLASSIFICATION_TYPE":"U","NORAD_CAT_ID":65339,"ELEMENT_SET_NO":999,"REV_AT_EPOCH":3111,"BSTAR":0.00085592742,"MEAN_MOTION_DOT":0.00025076,"MEAN_MOTION_DDOT":0}]
